start=new Date('2021-09-28T00:00:00.000Z').valueOf();
sats=[{"ARG_OF_PERICENTER":"101.4153","LAUNCH_DATE":"2020-01-07","SEMIMAJOR_AXIS":"6925.362","EPOCH":"2021-09-27T17:54:53.827776","MEAN_ELEMENT_THEORY":"SGP4","TLE_LINE2":"2 44964  53.0568  36.7961 0001186 101.4153 258.6969 15.06395750 95649","BSTAR":"-0.00008727300000","MEAN_MOTION_DOT":"-0.00001581","OBJECT_NAME":"STARLINK-1086","TIME_SYSTEM":"UTC","DECAY_DATE":null,"ECCENTRICITY":"0.00011860","EPHEMERIS_TYPE":"0","REF_FRAME":"TEME","NORAD_CAT_ID":"44964","MEAN_MOTION":"15.06395750","RCS_SIZE":"LARGE","INCLINATION":"53.0568","OBJECT_ID":"2020-001BC","ELEMENT_SET_NO":"999","PERIOD":"95.592","COUNTRY_CODE":"US","CENTER_NAME":"EARTH","FILE":"3131463","MEAN_MOTION_DDOT":"0.0000000000000","REV_AT_EPOCH":"9564","MEAN_ANOMALY":"258.6969","GP_ID":"185665695","TLE_LINE1":"1 44964U 20001BC  21270.74645634 -.00001581  00000-0 -87273-4 0  9999","RA_OF_ASC_NODE":"36.7961","OBJECT_TYPE":"PAYLOAD","SITE":"AFETR","CLASSIFICATION_TYPE":"U","PERIAPSIS":"546.405","APOAPSIS":"548.048"},{"REF_FRAME":"TEME","NORAD_CAT_ID":"44966","MEAN_MOTION":"15.06400999","MEAN_MOTION_DOT":"0.00001352","TIME_SYSTEM":"UTC","DECAY_DATE":null,"ECCENTRICITY":"0.00012700","EPHEMERIS_TYPE":"0","OBJECT_NAME":"STARLINK-1088","EPOCH":"2021-09-27T20:02:15.524160","SEMIMAJOR_AXIS":"6925.345","MEAN_ELEMENT_THEORY":"SGP4","TLE_LINE2":"2 44966  53.0549  36.3878 0001270 110.1267 249.9859 15.06400999 95654","BSTAR":"0.00010963000000","LAUNCH_DATE":"2020-01-07","ARG_OF_PERICENTER":"110.1267","SITE":"AFETR","TLE_LINE1":"1 44966U 20001BE  21270.83490190  .00001352  00000-0  10963-3 0  9991","RA_OF_ASC_NODE":"36.3878","OBJECT_TYPE":"PAYLOAD","PERIAPSIS":"546.331","CLASSIFICATION_TYPE":"U","APOAPSIS":"548.090","GP_ID":"185665446","FILE":"3131463","CENTER_NAME":"EARTH","REV_AT_EPOCH":"9565","MEAN_ANOMALY":"249.9859","MEAN_MOTION_DDOT":"0.0000000000000","INCLINATION":"53.0549","RCS_SIZE":"LARGE","PERIOD":"95.592","COUNTRY_CODE":"US","ELEMENT_SET_NO":"999","OBJECT_ID":"2020-001BE"},{"PERIOD":"95.593","COUNTRY_CODE":"US","OBJECT_ID":"2020-001BF","ELEMENT_SET_NO":"999","INCLINATION":"53.0560","RCS_SIZE":"LARGE","REV_AT_EPOCH":"9564","MEAN_ANOMALY":"266.2352","MEAN_MOTION_DDOT":"0.0000000000000","FILE":"3131463","CENTER_NAME":"EARTH","GP_ID":"185666697","APOAPSIS":"548.060","CLASSIFICATION_TYPE":"U","PERIAPSIS":"546.466","SITE":"AFETR","TLE_LINE1":"1 44967U 20001BF  21270.72432920 -.00000466  00000-0 -12418-4 0  9992","OBJECT_TYPE":"PAYLOAD","RA_OF_ASC_NODE":"36.8877","LAUNCH_DATE":"2020-01-07","ARG_OF_PERICENTER":"93.8768","MEAN_ELEMENT_THEORY":"SGP4","TLE_LINE2":"2 44967  53.0560  36.8877 0001151  93.8768 266.2352 15.06383773 95642","BSTAR":"-0.00001241800000","EPOCH":"2021-09-27T17:23:02.042880","SEMIMAJOR_AXIS":"6925.398","EPHEMERIS_TYPE":"0","TIME_SYSTEM":"UTC","DECAY_DATE":null,"ECCENTRICITY":"0.00011510","OBJECT_NAME":"STARLINK-1089","MEAN_MOTION_DOT":"-0.00000466","NORAD_CAT_ID":"44967","MEAN_MOTION":"15.06383773","REF_FRAME":"TEME"},{"LAUNCH_DATE":"2020-01-07","ARG_OF_PERICENTER":"108.9903","EPOCH":"2021-09-27T17:17:45.124224","SEMIMAJOR_AXIS":"6925.406","TLE_LINE2":"2 44968  53.0557  36.9000 0001203 108.9903 251.1217 15.06381221 95644","BSTAR":"-0.00008167800000","MEAN_ELEMENT_THEORY":"SGP4","MEAN_MOTION_DOT":"-0.00001497","EPHEMERIS_TYPE":"0","TIME_SYSTEM":"UTC","DECAY_DATE":null,"ECCENTRICITY":"0.00012030","OBJECT_NAME":"STARLINK-1090","NORAD_CAT_ID":"44968","MEAN_MOTION":"15.06381221","REF_FRAME":"TEME","INCLINATION":"53.0557","RCS_SIZE":"LARGE","PERIOD":"95.593","COUNTRY_CODE":"US","OBJECT_ID":"2020-001BG","ELEMENT_SET_NO":"999","FILE":"3131463","CENTER_NAME":"EARTH","MEAN_ANOMALY":"251.1217","REV_AT_EPOCH":"9564","MEAN_MOTION_DDOT":"0.0000000000000","GP_ID":"185666444","SITE":"AFETR","OBJECT_TYPE":"PAYLOAD","TLE_LINE1":"1 44968U 20001BG  21270.72066116 -.00001497  00000-0 -81678-4 0  9992","RA_OF_ASC_NODE":"36.9000","APOAPSIS":"548.104","CLASSIFICATION_TYPE":"U","PERIAPSIS":"546.438"},{"SITE":"AFETR","TLE_LINE1":"1 44969U 20001BH  21270.84596418  .00000148  00000-0  28826-4 0  9995","OBJECT_TYPE":"PAYLOAD","RA_OF_ASC_NODE":"36.3392","PERIAPSIS":"546.252","CLASSIFICATION_TYPE":"U","APOAPSIS":"548.204","GP_ID":"185665196","FILE":"3131463","CENTER_NAME":"EARTH","MEAN_ANOMALY":"255.5916","REV_AT_EPOCH":"9565","MEAN_MOTION_DDOT":"0.0000000000000","INCLINATION":"53.0559","RCS_SIZE":"LARGE","COUNTRY_CODE":"US","PERIOD":"95.592","ELEMENT_SET_NO":"999","OBJECT_ID":"2020-001BH","REF_FRAME":"TEME","NORAD_CAT_ID":"44969","MEAN_MOTION":"15.06395277","MEAN_MOTION_DOT":"0.00000148","TIME_SYSTEM":"UTC","DECAY_DATE":null,"ECCENTRICITY":"0.00014090","EPHEMERIS_TYPE":"0","OBJECT_NAME":"STARLINK-1092","EPOCH":"2021-09-27T20:18:11.305152","SEMIMAJOR_AXIS":"6925.363","MEAN_ELEMENT_THEORY":"SGP4","TLE_LINE2":"2 44969  53.0559  36.3392 0001409 104.5229 255.5916 15.06395277 95657","BSTAR":"0.00002882600000","LAUNCH_DATE":"2020-01-07","ARG_OF_PERICENTER":"104.5229"},{"MEAN_MOTION_DOT":"-0.00000262","DECAY_DATE":null,"TIME_SYSTEM":"UTC","ECCENTRICITY":"0.00013790","EPHEMERIS_TYPE":"0","OBJECT_NAME":"STARLINK-1093","REF_FRAME":"TEME","NORAD_CAT_ID":"44970","MEAN_MOTION":"15.06397623","LAUNCH_DATE":"2020-01-07","ARG_OF_PERICENTER":"102.4126","EPOCH":"2021-09-27T18:10:47.822880","SEMIMAJOR_AXIS":"6925.356","BSTAR":"0.00000127400000","TLE_LINE2":"2 44970  53.0573  36.7416 0001379 102.4126 257.7017 15.06397623 95636","MEAN_ELEMENT_THEORY":"SGP4","GP_ID":"185665946","SITE":"AFETR","TLE_LINE1":"1 44970U 20001BJ  21270.75749795 -.00000262  00000-0  12740-5 0  9992","RA_OF_ASC_NODE":"36.7416","OBJECT_TYPE":"PAYLOAD","PERIAPSIS":"546.266","CLASSIFICATION_TYPE":"U","APOAPSIS":"548.176","INCLINATION":"53.0573","RCS_SIZE":"LARGE","COUNTRY_CODE":"US","PERIOD":"95.592","OBJECT_ID":"2020-001BJ","ELEMENT_SET_NO":"999","FILE":"3131463","CENTER_NAME":"EARTH","REV_AT_EPOCH":"9563","MEAN_ANOMALY":"257.7017","MEAN_MOTION_DDOT":"0.0000000000000"},{"MEAN_MOTION":"15.06396609","NORAD_CAT_ID":"44972","REF_FRAME":"TEME","MEAN_MOTION_DOT":"0.00002110","EPHEMERIS_TYPE":"0","ECCENTRICITY":"0.00017020","DECAY_DATE":null,"TIME_SYSTEM":"UTC","OBJECT_NAME":"STARLINK-1107","EPOCH":"2021-09-27T17:28:19.950816","SEMIMAJOR_AXIS":"6925.359","TLE_LINE2":"2 44972  53.0549  36.8659 0001702 105.6604 254.4572 15.06396609 95641","MEAN_ELEMENT_THEORY":"SGP4","BSTAR":"0.00016055000000","LAUNCH_DATE":"2020-01-07","ARG_OF_PERICENTER":"105.6604","SITE":"AFETR","RA_OF_ASC_NODE":"36.8659","TLE_LINE1":"1 44972U 20001BL  21270.72800869  .00002110  00000-0  16055-3 0  9995","OBJECT_TYPE":"PAYLOAD","APOAPSIS":"548.403","CLASSIFICATION_TYPE":"U","PERIAPSIS":"546.045","GP_ID":"185666198","FILE":"3131463","CENTER_NAME":"EARTH","REV_AT_EPOCH":"9564","MEAN_ANOMALY":"254.4572","MEAN_MOTION_DDOT":"0.0000000000000","INCLINATION":"53.0549","RCS_SIZE":"LARGE","PERIOD":"95.592","COUNTRY_CODE":"US","ELEMENT_SET_NO":"999","OBJECT_ID":"2020-001BL"},{"ARG_OF_PERICENTER":"97.7768","LAUNCH_DATE":"2020-01-07","TLE_LINE2":"2 44973  53.0563  36.3727 0001337  97.7768 262.3373 15.06391263 95654","BSTAR":"-0.00010056000000","MEAN_ELEMENT_THEORY":"SGP4","SEMIMAJOR_AXIS":"6925.375","EPOCH":"2021-09-27T20:07:34.270176","OBJECT_NAME":"STARLINK-1115","EPHEMERIS_TYPE":"0","DECAY_DATE":null,"ECCENTRICITY":"0.00013370","TIME_SYSTEM":"UTC","MEAN_MOTION_DOT":"-0.00001779","NORAD_CAT_ID":"44973","MEAN_MOTION":"15.06391263","REF_FRAME":"TEME","ELEMENT_SET_NO":"999","OBJECT_ID":"2020-001BM","PERIOD":"95.593","COUNTRY_CODE":"US","RCS_SIZE":"LARGE","INCLINATION":"53.0563","MEAN_MOTION_DDOT":"0.0000000000000","MEAN_ANOMALY":"262.3373","REV_AT_EPOCH":"9565","CENTER_NAME":"EARTH","FILE":"3131463","GP_ID":"185666944","APOAPSIS":"548.166","CLASSIFICATION_TYPE":"U","PERIAPSIS":"546.314","TLE_LINE1":"1 44973U 20001BM  21270.83859109 -.00001779  00000-0 -10056-3 0  9996","OBJECT_TYPE":"PAYLOAD","RA_OF_ASC_NODE":"36.3727","SITE":"AFETR"},{"GP_ID":"185666451","CLASSIFICATION_TYPE":"U","PERIAPSIS":"546.475","APOAPSIS":"547.999","SITE":"AFETR","RA_OF_ASC_NODE":"357.3841","TLE_LINE1":"1 45044U 20006A   21270.61376109 -.00001114  00000-0 -55957-4 0  9994","OBJECT_TYPE":"PAYLOAD","PERIOD":"95.593","COUNTRY_CODE":"US","OBJECT_ID":"2020-006A","ELEMENT_SET_NO":"999","INCLINATION":"53.0566","RCS_SIZE":"LARGE","REV_AT_EPOCH":"9195","MEAN_ANOMALY":"269.2013","MEAN_MOTION_DDOT":"0.0000000000000","FILE":"3131463","CENTER_NAME":"EARTH","TIME_SYSTEM":"UTC","DECAY_DATE":null,"ECCENTRICITY":"0.00011000","EPHEMERIS_TYPE":"0","OBJECT_NAME":"STARLINK-1132","MEAN_MOTION_DOT":"-0.00001114","REF_FRAME":"TEME","MEAN_MOTION":"15.06392441","NORAD_CAT_ID":"45044","LAUNCH_DATE":"2020-01-29","ARG_OF_PERICENTER":"90.9102","BSTAR":"-0.00005595700000","TLE_LINE2":"2 45044  53.0566 357.3841 0001100  90.9102 269.2013 15.06392441 91950","MEAN_ELEMENT_THEORY":"SGP4","EPOCH":"2021-09-27T14:43:48.958176","SEMIMAJOR_AXIS":"6925.372"},{"MEAN_MOTION_DOT":"-0.00000039","OBJECT_NAME":"STARLINK-1120","DECAY_DATE":null,"ECCENTRICITY":"0.00013700","TIME_SYSTEM":"UTC","EPHEMERIS_TYPE":"0","REF_FRAME":"TEME","NORAD_CAT_ID":"45045","MEAN_MOTION":"15.06394081","ARG_OF_PERICENTER":"96.9872","LAUNCH_DATE":"2020-01-29","SEMIMAJOR_AXIS":"6925.367","EPOCH":"2021-09-27T17:36:18.962784","TLE_LINE2":"2 45045  53.0560  16.8450 0001370  96.9872 263.1273 15.06394081 91691","BSTAR":"0.00001631100000","MEAN_ELEMENT_THEORY":"SGP4","GP_ID":"185665203","OBJECT_TYPE":"PAYLOAD","TLE_LINE1":"1 45045U 20006B   21270.73355281 -.00000039  00000-0  16311-4 0  9991","RA_OF_ASC_NODE":"16.8450","SITE":"AFETR","PERIAPSIS":"546.283","CLASSIFICATION_TYPE":"U","APOAPSIS":"548.180","RCS_SIZE":"LARGE","INCLINATION":"53.0560","OBJECT_ID":"2020-006B","ELEMENT_SET_NO":"999","PERIOD":"95.593","COUNTRY_CODE":"US","CENTER_NAME":"EARTH","FILE":"3131463","MEAN_MOTION_DDOT":"0.0000000000000","REV_AT_EPOCH":"9169","MEAN_ANOMALY":"263.1273"}];
